NORAD_CAT_ID,OBJECT_NAME,OBJECT_TYPE,EPOCH,MEAN_MOTION,ECCENTRICITY,INCLINATION,RA_OF_ASC_NODE,ARG_OF_PERICENTER,MEAN_ANOMALY,BSTAR,MEAN_MOTION_DOT,MEAN_MOTION_DDOT,TLE_LINE0,TLE_LINE1,TLE_LINE2,SEMIMAJOR_AXIS,PERIOD,APOGEE,PERIGEE,DECAYED
52861.0,STARLINK-4112,PAYLOAD,2023-02-27 06:02:32,15.08059535,0.0001254,53.2154,311.1232,92.4013,267.7122,-0.0015912,-0.0002499,0.0,0 STARLINK-4112,1 52861U 22062AH  23058.25176467 -.00024990  00000-0 -15912-2 0  9996,2 52861  53.2154 311.1232 0001254  92.4013 267.7122 15.08059535 39389,6920.267,95.487,543.0,541.264,0.0
52861.0,STARLINK-4112,PAYLOAD,2023-02-27 17:10:32,15.08252588,0.0005994,53.2162,309.0446,109.6064,250.5575,0.0090871,0.00145014,0.0,0 STARLINK-4112,1 52861U 22062AH  23058.71565949  .00145014  00000-0  90871-2 0  9990,2 52861  53.2162 309.0446 0005994 109.6064 250.5575 15.08252588 39456,6919.676,95.475,545.689,537.394,0.0
52861.0,STARLINK-4112,PAYLOAD,2023-02-28 08:00:01,15.08834635,0.0001636,53.2145,306.2697,89.9056,26.7007,-0.0020055,-0.00032059,0.0,0 STARLINK-4112,1 52861U 22062AH  23059.33334491 -.00032059  00000-0 -20055-2 0  9998,2 52861  53.2145 306.2697 0001636  89.9056  26.7007 15.08834635 39546,6917.897,95.438,540.894,538.63,0.0
52861.0,STARLINK-4112,PAYLOAD,2023-02-28 21:47:37,15.08844566,0.0001534,53.216,303.6922,84.3748,275.7419,0.0025414,0.00040396,0.0,0 STARLINK-4112,1 52861U 22062AH  23059.90807511  .00040396  00000-0  25414-2 0  9994,2 52861  53.2160 303.6922 0001534  84.3748 275.7419 15.08844566 39142,6917.866,95.437,540.793,538.67,0.0
52861.0,STARLINK-4112,PAYLOAD,2023-02-28 23:23:00,15.08831439,0.0001543,53.2154,303.3918,88.0306,272.0863,0.0011932,0.00018748,0.0,0 STARLINK-4112,1 52861U 22062AH  23059.97431423  .00018748  00000-0  11932-2 0  9992,2 52861  53.2154 303.3918 0001543  88.0306 272.0863 15.08831439 39641,6917.907,95.438,540.839,538.704,0.0
52861.0,STARLINK-4112,PAYLOAD,2023-03-01 21:38:24,15.08846251,0.0001625,53.2145,299.2274,91.1525,268.9653,0.00096557,0.00015115,0.0,0 STARLINK-4112,1 52861U 22062AH  23060.90167756  .00015115  00000-0  96557-3 0  9994,2 52861  53.2145 299.2274 0001625  91.1525 268.9653 15.08846251 39298,6917.861,95.437,540.85,538.602,0.0
52861.0,STARLINK-4112,PAYLOAD,2023-03-02 00:49:11,15.0884633,0.0001584,53.2145,298.6336,93.7823,266.335,0.00058737,9.074e-05,0.0,0 STARLINK-4112,1 52861U 22062AH  23061.03415577  .00009074  00000-0  58737-3 0  9991,2 52861  53.2145 298.6336 0001584  93.7823 266.3350 15.08846330 39804,6917.861,95.437,540.822,538.63,0.0
52861.0,STARLINK-4112,PAYLOAD,2023-03-02 19:53:48,15.08847294,0.0001653,53.2145,295.0664,96.2371,263.8809,0.00036876,5.587e-05,0.0,0 STARLINK-4112,1 52861U 22062AH  23061.82903531  .00005587  00000-0  36876-3 0  9995,2 52861  53.2145 295.0664 0001653  96.2371 263.8809 15.08847294 39432,6917.858,95.437,540.867,538.58,0.0
52861.0,STARLINK-4112,PAYLOAD,2023-03-03 14:00:01,15.08836887,0.000144,53.2132,291.6785,97.9207,41.726,0.0039895,0.00063774,0.0,0 STARLINK-4112,1 52861U 22062AH  23062.58334491  .00063774  00000-0  39895-2 0  9997,2 52861  53.2132 291.6785 0001440  97.9207  41.7260 15.08836887 40043,6917.89,95.438,540.751,538.759,0.0
52861.0,STARLINK-4112,PAYLOAD,2023-03-03 22:00:00,15.08909883,0.0001456,53.2131,290.1839,81.1867,70.0768,-0.010499,-0.00163915,0.0,0 STARLINK-4112,1 52861U 22062AH  23062.91667824 -.00163915  00000-0 -10499-1 0  9991,2 52861  53.2131 290.1839 0001456  81.1867  70.0768 15.08909883  1301,6917.667,95.433,540.539,538.525,0.0
52861.0,STARLINK-4112,PAYLOAD,2023-03-03 22:55:21,15.0887209,0.0001608,53.2145,290.0109,97.7646,262.3529,0.0013011,0.00020498,0.0,0 STARLINK-4112,1 52861U 22062AH  23062.95510548  .00020498  00000-0  13011-2 0  9995,2 52861  53.2145 290.0109 0001608  97.7646 262.3529 15.08872090 40091,6917.782,95.436,540.76,538.535,0.0
52861.0,STARLINK-4112,PAYLOAD,2023-03-04 00:00:00,15.08849418,0.0001454,53.2133,289.81,75.6883,168.4984,-0.0050845,-0.00080327,0.0,0 STARLINK-4112,1 52861U 22062AH  23063.00001157 -.00080327  00000-0 -50845-2 0  9998,2 52861  53.2133 289.8100 0001454  75.6883 168.4984 15.08849418 40103,6917.852,95.437,540.722,538.711,0.0
52861.0,STARLINK-4112,PAYLOAD,2023-03-04 21:10:45,15.08845384,0.000186,53.2142,285.8475,80.6583,279.462,0.0015361,0.00024247,0.0,0 STARLINK-4112,1 52861U 22062AH  23063.88247664  .00024247  00000-0  15361-2 0  9990,2 52861  53.2142 285.8475 0001860  80.6583 279.4620 15.08845384 40230,6917.864,95.437,541.016,538.442,0.0
52861.0,STARLINK-4112,PAYLOAD,2023-03-05 00:21:32,15.08836128,0.0001489,53.2142,285.2512,77.3696,282.7462,0.00047948,7.35e-05,0.0,0 STARLINK-4112,1 52861U 22062AH  23064.01495662  .00007350  00000-0  47948-3 0  9992,2 52861  53.2142 285.2512 0001489  77.3696 282.7462 15.08836128 40250,6917.892,95.438,540.787,538.727,0.0
52861.0,STARLINK-4112,PAYLOAD,2023-03-05 21:01:33,15.08839932,0.0001401,53.214,281.3846,84.8134,275.3018,0.00072234,0.00011227,0.0,0 STARLINK-4112,1 52861U 22062AH  23064.87607714  .00011227  00000-0  72234-3 0  9993,2 52861  53.2140 281.3846 0001401  84.8134 275.3018 15.08839932 39898,6917.881,95.438,540.715,538.776,0.0
52861.0,STARLINK-4112,PAYLOAD,2023-03-06 20:52:20,15.08843566,0.0001281,53.2131,276.9228,78.7994,281.3142,0.00020946,3.048e-05,0.0,0 STARLINK-4112,1 52861U 22062AH  23065.86967822  .00003048  00000-0  20946-3 0  9997,2 52861  53.2131 276.9228 0001281  78.7994 281.3142 15.08843566 40530,6917.869,95.437,540.621,538.848,0.0
52861.0,STARLINK-4112,PAYLOAD,2023-03-07 01:38:29,15.08857751,0.0001223,53.2134,276.0323,80.1767,279.9363,0.00049828,7.655e-05,0.0,0 STARLINK-4112,1 52861U 22062AH  23066.06839427  .00007655  00000-0  49828-3 0  9997,2 52861  53.2134 276.0323 0001223  80.1767 279.9363 15.08857751 40563,6917.826,95.436,540.537,538.845,0.0
52861.0,STARLINK-4112,PAYLOAD,2023-03-07 17:32:20,15.08838596,0.0001159,53.2133,273.0587,89.469,270.6435,-3.5762e-05,-8.57e-06,0.0,0 STARLINK-4112,1 52861U 22062AH  23066.73079830 -.00000857  00000-0 -35762-4 0  9997,2 52861  53.2133 273.0587 0001159  89.4690 270.6435 15.08838596 40661,6917.885,95.438,540.551,538.948,0.0
52861.0,STARLINK-4112,PAYLOAD,2023-03-08 20:33:54,15.08853002,0.0001366,53.2128,268.0037,97.1157,262.9991,0.00050342,7.736e-05,0.0,0 STARLINK-4112,1 52861U 22062AH  23067.85687799  .00007736  00000-0  50342-3 0  9991,2 52861  53.2128 268.0037 0001366  97.1157 262.9991 15.08853002 40348,6917.841,95.437,540.651,538.761,0.0
52861.0,STARLINK-4112,PAYLOAD,2023-03-08 23:44:40,15.08863287,0.0001247,53.2125,267.4087,100.1573,259.956,0.0014299,0.00022557,0.0,0 STARLINK-4112,1 52861U 22062AH  23067.98935844  .00022557  00000-0  14299-2 0  9990,2 52861  53.2125 267.4087 0001247 100.1573 259.9560 15.08863287 40858,6917.809,95.436,540.537,538.812,0.0
52861.0,STARLINK-4112,PAYLOAD,2023-03-09 06:06:13,15.08840987,0.0001275,53.2125,266.219,90.3339,269.7799,0.0006093,9.423e-05,0.0,0 STARLINK-4112,1 52861U 22062AH  23068.25432180  .00009423  00000-0  60930-3 0  9997,2 52861  53.2125 266.2190 0001275  90.3339 269.7799 15.08840987 40890,6917.877,95.437,540.624,538.86,0.0
52861.0,STARLINK-4112,PAYLOAD,2023-03-09 20:24:41,15.0886548,0.0001146,53.2124,263.543,85.4131,274.6992,0.0019131,0.00030312,0.0,0 STARLINK-4112,1 52861U 22062AH  23068.85047706  .00030312  00000-0  19131-2 0  9996,2 52861  53.2124 263.5430 0001146  85.4131 274.6992 15.08865480 40499,6917.803,95.436,540.46,538.875,0.0
52861.0,STARLINK-4112,PAYLOAD,2023-03-10 04:21:37,15.08839678,0.0001423,53.2122,262.0558,82.6031,277.5123,0.00041599,6.339e-05,0.0,0 STARLINK-4112,1 52861U 22062AH  23069.18168037  .00006339  00000-0  41599-3 0  9990,2 52861  53.2122 262.0558 0001423  82.6031 277.5123 15.08839678 41037,6917.881,95.438,540.731,538.762,0.0
52861.0,STARLINK-4112,PAYLOAD,2023-03-10 18:40:05,15.08836634,0.0001444,53.2122,259.3789,98.1475,261.9681,0.0011706,0.00018389,0.0,0 STARLINK-4112,1 52861U 22062AH  23069.77784348  .00018389  00000-0  11706-2 0  9998,2 52861  53.2122 259.3789 0001444  98.1475 261.9681 15.08836634 41124,6917.891,95.438,540.755,538.757,0.0
52861.0,STARLINK-4112,PAYLOAD,2023-03-10 20:15:28,15.08841401,0.0001391,53.2124,259.0818,97.2598,262.8553,0.0016631,0.0002628,0.0,0 STARLINK-4112,1 52861U 22062AH  23069.84408361  .00026280  00000-0  16631-2 0  9995,2 52861  53.2124 259.0818 0001391  97.2598 262.8553 15.08841401 40645,6917.876,95.437,540.703,538.779,0.0
52861.0,STARLINK-4112,PAYLOAD,2023-03-11 05:47:48,15.08838192,0.0001609,53.2122,257.2971,89.602,270.5156,0.0010295,0.00016134,0.0,0 STARLINK-4112,1 52861U 22062AH  23070.24152807  .00016134  00000-0  10295-2 0  9999,2 52861  53.2122 257.2971 0001609  89.6020 270.5156 15.08838192 41199,6917.886,95.438,540.864,538.638,0.0
52861.0,STARLINK-4112,PAYLOAD,2023-03-11 21:41:39,15.08853259,0.0001304,53.2135,254.3237,84.802,275.312,0.0013822,0.00021786,0.0,0 STARLINK-4112,1 52861U 22062AH  23070.90392618  .00021786  00000-0  13822-2 0  9996,2 52861  53.2135 254.3237 0001304  84.8020 275.3120 15.08853259 40807,6917.84,95.437,540.607,538.803,0.0
52861.0,STARLINK-4112,PAYLOAD,2023-03-12 19:57:02,15.08860511,3.84e-05,53.2164,250.1599,164.7423,195.3581,0.0015747,0.00024876,0.0,0 STARLINK-4112,1 52861U 22062AH  23071.83128071  .00024876  00000-0  15747-2 0  9990,2 52861  53.2164 250.1599 0000384 164.7423 195.3581 15.08860511 41437,6917.818,95.436,539.948,539.417,0.0
52861.0,STARLINK-4112,PAYLOAD,2023-03-12 21:32:25,15.08862465,5.28e-05,53.2167,249.8626,196.9147,163.1828,0.0014973,0.00023637,0.0,0 STARLINK-4112,1 52861U 22062AH  23071.89751858  .00023637  00000-0  14973-2 0  9995,2 52861  53.2167 249.8626 0000528 196.9147 163.1828 15.08862465 40959,6917.812,95.436,540.042,539.311,0.0
52861.0,STARLINK-4112,PAYLOAD,2023-03-13 11:50:54,15.08850694,0.0001979,53.2148,247.1834,74.8102,285.3109,0.0010568,0.00016576,0.0,0 STARLINK-4112,1 52861U 22062AH  23072.49368911  .00016576  00000-0  10568-2 0  9996,2 52861  53.2148 247.1834 0001979  74.8102 285.3109 15.08850694 41531,6917.848,95.437,541.082,538.344,0.0
